0 ARIANE 5 R/B
1 38993U 12062C   19054.08713577  .00002645  00000-0  45156-3 0  9991
2 38993   2.2564 245.7433 7135229  54.1307 352.7405  2.47749020 54965
0 HJ-1C
1 38997U 12064A   19054.43773032  .00001628  00000-0  41983-4 0  9993
2 38997  97.2019  87.6276 0008966 320.2493 151.5625 15.40610708351842
0 HJ-1C
1 38997U 12064A   19054.82613569  .00001599  00000-0  41259-4 0  9997
2 38997  97.2019  88.0103 0008899 318.6711 145.9058 15.40611781351901
0 HJ-1C
1 38997U 12064A   19054.10807801  .00001630  00000-0  42020-4 0  9995
2 38997  97.2020  87.3028 0009029 321.6228 123.0660 15.40609509351792
0 FENGNIAO 1 (FN-1)
1 38998U 12064B   19054.52776685  .00001139  00000-0  28865-4 0  9992
2 38998  97.2771  83.0783 0006204   8.9791 351.1566 15.41825413350860
0 FENGNIAO 1 (FN-1)
1 38998U 12064B   19054.65756796  .00001131  00000-0  28681-4 0  9995
2 38998  97.2771  83.2078 0006196   8.5074 351.6277 15.41825652350880
0 FENGNIAO 1 (FN-1)
1 38998U 12064B   19054.07346272  .00001194  00000-0  30168-4 0  9997
2 38998  97.2771  82.6253 0006261  10.5056 349.6320 15.41824699350790
0 XINYAN 1 (XY-1)
1 38999U 12064C   19054.76020067  .00030271  00000-0  17225-3 0  9991
2 38999  97.1970 120.6424 0003347 128.2686  20.5102 15.78928142353819
0 XINYAN 1 (XY-1)
1 38999U 12064C   19054.44055360  .00029861  00000-0  17010-3 0  9995
2 38999  97.1972 120.3091 0003261 128.9473   4.1469 15.78907426353764
0 XINYAN 1 (XY-1)
1 38999U 12064C   19054.11516196  .00029085  00000-0  16588-3 0  9995
2 38999  97.1974 119.9688 0003197 126.0733 318.7240 15.78885128353718
0 ECHOSTAR 16
1 39008U 12065A   19054.79830641 -.00000303  00000-0  00000+0 0  9997
2 39008   0.0197 127.8475 0002090 216.3142  35.0805  1.00271692 23030
0 ECHOSTAR 16
1 39008U 12065A   19053.91280720 -.00000304 +00000-0 +00000-0 0  9999
2 39008 000.0202 124.4919 0002112 221.0604 074.0381 01.00271620022845
0 BREEZE-M R/B
1 39009U 12065B   19053.55880074 -.00000156  00000-0  00000+0 0  9992
2 39009  30.2786  75.6911 6886795 275.2771  15.9166  2.23060129 51030
0 BREEZE-M DEB (TANK)
1 39010U 12065C   19053.84072899 +.00001630 +00000-0 +30250-3 0  9995
2 39010 049.6598 289.3837 4675736 064.4873 336.2170 06.15540764138121
0 BREEZE-M DEB (TANK)
1 39010U 12065C   19054.81530374  .00001388  00000-0  26033-3 0  9994
2 39010  49.6597 288.4255 4675711  65.2953 335.8287  6.15543383139715
0 YAOGAN 16A
1 39011U 12066A   19053.93339823 -.00000138 +00000-0 -71491-4 0  9997
2 39011 063.3776 332.5091 0205898 009.1316 351.3365 13.45180489306797
0 YAOGAN 16A
1 39011U 12066A   19054.23075533 -.00000021  00000-0  10333-3 0  9993
2 39011  63.3780 331.7448 0205978   9.1258 351.3424 13.45181054306833
0 YAOGAN 16B
1 39012U 12066B   19054.23097883 -.00000083  00000-0  10583-4 0  9992
2 39012  63.3780 331.8096 0205661   9.0376 351.4266 13.45180412306846
0 YAOGAN 16B
1 39012U 12066B   19053.93362142 -.00000140 +00000-0 -73268-4 0  9995
2 39012 063.3777 332.5737 0205628 009.0405 351.4233 13.45180149306805
0 YAOGAN 16C
1 39013U 12066C   19053.93342539 -.00000154 +00000-0 -94612-4 0  9995
2 39013 063.3802 331.8718 0205662 008.7873 351.6666 13.45180873306827
0 YAOGAN 16C
1 39013U 12066C   19054.23078164 -.00000068  00000-0  33362-4 0  9997
2 39013  63.3796 331.1102 0205351   8.7810 351.6721 13.45181328306867
0 CZ-4C R/B
1 39014U 12066D   19054.15435055 -.00000067  00000-0  20966-4 0  9990
2 39014  63.4223  79.2585 0367442   5.4376 355.0485 13.70200287312518
0 CZ-4C R/B
1 39014U 12066D   19053.42453000 -.00000059 +00000-0 +26839-4 0  9995
2 39014 063.4223 081.2184 0367382 005.4382 355.0479 13.70200216312375
0 CZ-4C DEB
1 39015U 12066E   19053.78444068 -.00000028 +00000-0 +92386-4 0  9995
2 39015 063.3789 344.5867 0216434 011.0097 349.5555 13.44127026306477
0 CZ-4C DEB
1 39016U 12066F   19053.84007240 -.00000016 +00000-0 +10952-3 0  9995
2 39016 063.3786 340.6704 0218217 011.5509 349.0409 13.44473925306561
0 CHINASAT 12
1 39017U 12067A   19053.88965804 -.00000229 +00000-0 +00000-0 0  9996
2 39017 000.0191 116.3958 0002793 214.5177 229.3338 01.00271476022927
0 CHINASAT 12
1 39017U 12067A   19054.11021192 -.00000229  00000-0  00000+0 0  9995
2 39017   0.0196 116.4063 0002794 214.9465 308.5105  1.00271407 22921
0 CHINASAT 12
1 39017U 12067A   19054.51499260 -.00000228  00000-0  00000+0 0  9993
2 39017   0.0204 117.5370 0002773 212.1396  96.2921  1.00270304 22937
0 PLEIADES 1B
1 39019U 12068A   19054.79055191 -.00000044  00000-0  37031-6 0  9994
2 39019  98.1769 131.1238 0001465  80.6475  65.0655 14.58560805331599
0 EUTE 70B
1 39020U 12069A   19054.52274648 -.00000066  00000-0  00000+0 0  9991
2 39020   0.0637   0.3001 0001975 304.5223 107.0097  1.00272938 22838
0 EUTE 70B
1 39020U 12069A   19053.87289722 -.00000067 +00000-0 +00000-0 0  9999
2 39020 000.0640 358.7792 0001988 305.5163 232.9479 01.00272879022721
0 BLOCK DM-SL R/B
1 39021U 12069B   19053.68308422 -.00000110 +00000-0 +00000-0 0  9997
2 39021 000.0942 149.6281 6867525 241.8706 355.3687 02.21898703050462
0 BLOCK DM-SL R/B
1 39021U 12069B   19054.13372397 -.00000103  00000-0  00000+0 0  9991
2 39021   0.0942 148.8828 6867658 242.7549 355.3530  2.21898744 50464
0 YAMAL 402
1 39022U 12070A   19054.82159841  .00000065  00000-0  00000+0 0  9993
2 39022   0.0230 129.0306 0002935 224.8126 150.2376  1.00270711 22825
0 BREEZE-M R/B
1 39023U 12070B   19053.39893752 -.00000038 +00000-0 +00000-0 0  9993
2 39023 024.9446 201.8071 6331374 028.9621 354.6365 02.09995078046924
0 KMS 3-2
1 39026U 12072A   19053.46238907 +.00001188 +00000-0 +45927-4 0  9998
2 39026 097.2111 060.4054 0039262 152.0957 208.2400 15.27471680343796
0 KMS 3-2
1 39026U 12072A   19054.18300225  .00001156  00000-0  44749-4 0  9997
2 39026  97.2112  61.1021 0039336 149.5866 210.7668 15.27473093343964
0 UNHA 3 R/B
1 39027U 12072B   19053.60333478 +.00000422 +00000-0 +24998-4 0  9999
2 39027 097.2955 042.2429 0056476 251.8035 107.7045 15.15452428310189
0 UNHA 3 R/B
1 39027U 12072B   19054.59377230  .00000385  00000-0  23114-4 0  9999
2 39027  97.2956  43.1941 0056509 248.2689 111.2523 15.15453266342290
0 UNHA 3 DEB
1 39029U 12072D   19054.55304227  .00009625  00000-0  14459-3 0  9990
2 39029  97.1165  85.9187 0019417   2.6147 357.5205 15.54865897346642
0 UNHA 3 DEB
1 39029U 12072D   19053.71640037 +.00010978 +00000-0 +16476-3 0  9993
2 39029 097.1164 085.0865 0019477 005.7641 354.3834 15.54850174346458
0 GOKTURK 2
1 39030U 12073A   19054.50409146 -.00000003  00000-0  72741-5 0  9996
2 39030  98.0082 305.7853 0000300 158.6306 201.4907 14.72721238331262
0 GOKTURK 2
1 39030U 12073A   19054.77586143  .00000003  00000-0  82118-5 0  9996
2 39030  98.0082 306.0535 0000318 159.7229 200.3993 14.72721342331302
0 GOKTURK 2
1 39030U 12073A   19054.16437875  .00000018  00000-0  10530-4 0  9990
2 39030  98.0082 305.4501 0000145 177.8793 182.2417 14.72721477331211
0 SKYNET 5D
1 39034U 12075A   19054.82116223  .00000078  00000-0  00000+0 0  9992
2 39034   0.0753   4.0233 0004253 326.5789 171.1217  1.00272265 22742
0 SKYNET 5D
1 39034U 12075A   19053.86367792 +.00000077 +00000-0 +00000-0 0  9994
2 39034 000.0756 002.2645 0004316 326.6739 187.1471 01.00271755022380
0 MEXSAT 3
1 39035U 12075B   19053.60093744 -.00000048 +00000-0 +00000-0 0  9999
2 39035 000.0165 128.9911 0002235 215.3650 269.3380 01.00271533022398
0 MEXSAT 3
1 39035U 12075B   19054.14161685 -.00000047  00000-0  00000+0 0  9997
2 39035   0.0176 128.2196 0002223 217.9049 102.7462  1.00271691 22694
0 ARIANE 5 R/B
1 39036U 12075C   19053.76916690 +.00000647 +00000-0 +26820-3 0  9996
2 39036 002.8331 349.5457 7211113 304.3871 007.4219 02.36181213052376
0 CZ-4 DEB
1 39052U 99057SZ  19054.46787696  .00000009  00000-0  83884-5 0  9996
2 39052  98.6950 136.4616 0065697   4.8810 355.3030 14.88197521346760
0 COSMOS 2482
1 39057U 13001A   19054.73781288  .00000038  00000-0  20325-3 0  9998
2 39057  82.4965  81.5912 0028693  90.2456 270.1910 12.42897761277036
0 COSMOS 2483
1 39058U 13001B   19054.47765219  .00000050  00000-0  28608-3 0  9992
2 39058  82.4972  79.2833 0017556  90.5268 269.7843 12.43953138277223
0 COSMOS 2483
1 39058U 13001B   19053.75379892 +.00000035 +00000-0 +17888-3 0  9991
2 39058 082.4970 079.7342 0017517 091.7742 268.5344 12.43952926277135
0 COSMOS 2484
1 39059U 13001C   19053.72047955 +.00000044 +00000-0 +24139-3 0  9998
2 39059 082.4997 082.8874 0026785 102.2198 258.1880 12.42879048276894
0 COSMOS 2484
1 39059U 13001C   19054.12296778  .00000044  00000-0  24139-3 0  9992
2 39059  82.4997  82.6371 0026785 101.3424 259.0667 12.42879075276945
0 STSAT 2C
1 39068U 13003A   19053.98386498  .00041376 -16646-6  19704-3 0  9991
2 39068  80.1832   8.5441 0187475 180.7988 179.2996 15.61279768327125
0 STSAT 2C
1 39068U 13003A   19054.81703107  .00038976 -22339-6  18520-3 0  9997
2 39068  80.1830   7.3913 0187296 177.9168 182.2911 15.61346472327255
0 KSLV-1 R/B
1 39069U 13003B   19053.88424741 +.00013115 -34158-6 +18389-3 0  9991
2 39069 080.2387 169.1038 0531222 208.1744 148.9769 14.71094228318684
0 ATLAS 5 CENTAUR R/B
1 39071U 13004B   19052.74691254 -.00000235 +00000-0 +00000-0 0  9994
2 39071 025.8586 330.0086 5912274 075.2621 340.1404 02.09793639046430
0 ATLAS 5 CENTAUR R/B
1 39071U 13004B   19054.17669918 -.00000222  00000-0  00000+0 0  9990
2 39071  25.8573 329.7750 5912297  75.6559 339.9888  2.09793560 46455
0 GLOBALSTAR M097
1 39072U 13005A   19053.65149547 -.00000088 +00000-0 +88843-4 0  9991
2 39072 052.0045 095.7821 0000605 163.6851 196.4035 12.62268008279609
0 GLOBALSTAR M097
1 39072U 13005A   19054.12659936 -.00000089  00000-0  80335-4 0  9991
2 39072  52.0045  94.3358 0000595 164.7174 195.3711 12.62268033279660
